STARLINK-1663
1 46535U 20070D   26061.16668981  .00198990  00000+0  20712-2 0  9991
2 46535  53.0438 172.2272 0002648 144.2696 174.8917 15.63423284  5968
